{"type": "FeatureCollection", "features": [ {"type": "Feature", "properties": {"norad_id": 30996, "name": "FENGYUN 1C DEB", "group": "fengyun-1c-debris", "lat": -14.48856928868107, "lon": -90.17718539309939, "alt_km": 783.3786761283727, "timestamp": "2025-12-27T23:26:37.642551+00:00", "meta": {"OBJECT_NAME": "FENGYUN 1C DEB", "OBJECT_ID": "1999-025BCN", "EPOCH": "2025-12-27T05:49:10.202016", "MEAN_MOTION": 14.35484501, "ECCENTRICITY": 0.0049424, "INCLINATION": 98.9434, "RA_OF_ASC_NODE": 266.7298, "ARG_OF_PERICENTER": 248.6514, "MEAN_ANOMALY": 263.4752, "EPHEMERIS_TYPE": 0, "CLASSIFICATION_TYPE": "U", "NORAD_CAT_ID": 30996, "ELEMENT_SET_NO": 999, "REV_AT_EPOCH": 97771, "BSTAR": 0.0009548, "MEAN_MOTION_DOT": 2.737e-05, "MEAN_MOTION_DDOT": 0}, "tle": {"line1": "1 30996U 99025BCN 25361.24247919  .00002737  00000+0  95480-3 0  9994", "line2": "2 30996  98.9434 266.7298 0049424 248.6514 263.4752 14.35484501977714"}}, "geometry": {"type": "Point", "coordinates": [-90.17718539309939, -14.48856928868107]}}, {"type": "Feature", "properties": {"norad_id": 30998, "name": "FENGYUN 1C DEB", "group": "fengyun-1c-debris", "lat": -32.02355071393765, "lon": 91.71033043375645, "alt_km": 746.6247923879237, "timestamp": "2025-12-27T23:26:37.642561+00:00", "meta": {"OBJECT_NAME": "FENGYUN 1C DEB", "OBJECT_ID": "1999-025BCQ", "EPOCH": "2025-12-27T05:27:56.216736", "MEAN_MOTION": 14.48150456, "ECCENTRICITY": 0.0012638, "INCLINATION": 98.8283, "RA_OF_ASC_NODE": 85.3501, "ARG_OF_PERICENTER": 156.2738, "MEAN_ANOMALY": 228.3268, "EPHEMERIS_TYPE": 0, "CLASSIFICATION_TYPE": "U", "NORAD_CAT_ID": 30998, "ELEMENT_SET_NO": 999, "REV_AT_EPOCH": 97400, "BSTAR": 0.0027073, "MEAN_MOTION_DOT": 0.00010062, "MEAN_MOTION_DDOT": 0}, "tle": {"line1": "1 30998U 99025BCQ 25361.22773399  .00010062  00000+0  27073-2 0  9992", "line2": "2 30998  98.8283  85.3501 0012638 156.2738 228.3268 14.48150456974002"}}, "geometry": {"type": "Point", "coordinates": [91.71033043375645, -32.02355071393765]}}, {"type": "Feature", "properties": {"norad_id": 30999, "name": "FENGYUN 1C DEB", "group": "fengyun-1c-debris", "lat": -64.21517865793268, "lon": -163.50640696517138, "alt_km": 625.6334079507405, "timestamp": "2025-12-27T23:26:37.642571+00:00", "meta": {"OBJECT_NAME": "FENGYUN 1C DEB", "OBJECT_ID": "1999-025BCR", "EPOCH": "2025-12-27T10:34:04.859328", "MEAN_MOTION": 14.58505614, "ECCENTRICITY": 0.0112498, "INCLINATION": 99.092, "RA_OF_ASC_NODE": 176.5483, "ARG_OF_PERICENTER": 293.2091, "MEAN_ANOMALY": 65.7289, "EPHEMERIS_TYPE": 0, "CLASSIFICATION_TYPE": "U", "NORAD_CAT_ID": 30999, "ELEMENT_SET_NO": 999, "REV_AT_EPOCH": 99045, "BSTAR": 0.00076555, "MEAN_MOTION_DOT": 3.82e-05, "MEAN_MOTION_DDOT": 0}, "tle": {"line1": "1 30999U 99025BCR 25361.44033402  .00003820  00000+0  76555-3 0  9995", "line2": "2 30999  99.0920 176.5483 0112498 293.2091  65.7289 14.58505614990459"}}, "geometry": {"type": "Point", "coordinates": [-163.50640696517138, -64.21517865793268]}}, {"type": "Feature", "properties": {"norad_id": 31000, "name": "FENGYUN 1C DEB", "group": "fengyun-1c-debris", "lat": 38.77125160527952, "lon": -145.66250684092967, "alt_km": 913.6049517897764, "timestamp": "2025-12-27T23:26:37.642581+00:00", "meta": {"OBJECT_NAME": "FENGYUN 1C DEB", "OBJECT_ID": "1999-025BCS", "EPOCH": "2025-12-25T01:12:10.495008", "MEAN_MOTION": 14.09669303, "ECCENTRICITY": 0.01647769, "INCLINATION": 97.5649, "RA_OF_ASC_NODE": 25.7475, "ARG_OF_PERICENTER": 30.4254, "MEAN_ANOMALY": 24.7095, "EPHEMERIS_TYPE": 0, "CLASSIFICATION_TYPE": "U", "NORAD_CAT_ID": 31000, "ELEMENT_SET_NO": 999, "REV_AT_EPOCH": 70130, "BSTAR": 0.00053920853, "MEAN_MOTION_DOT": 1.039e-05, "MEAN_MOTION_DDOT": 0}, "tle": {"line1": "1 31000U 99025BCS 25359.05012147  .00001039  00000+0  53921-3 0  9998", "line2": "2 31000  97.5649  25.7475 0164776  30.4254  24.7095 14.09669303701304"}}, "geometry": {"type": "Point", "coordinates": [-145.66250684092967, 38.77125160527952]}}, {"type": "Feature", "properties": {"norad_id": 31001, "name": "FENGYUN 1C DEB", "group": "fengyun-1c-debris", "lat": -69.4468823450326, "lon": -97.97656617511562, "alt_km": 861.144312061655, "timestamp": "2025-12-27T23:26:37.642592+00:00", "meta": {"OBJECT_NAME": "FENGYUN 1C DEB", "OBJECT_ID": "1999-025BCT", "EPOCH": "2025-12-26T21:09:14.846976", "MEAN_MOTION": 14.42897691, "ECCENTRICITY": 0.0147284, "INCLINATION": 99.2713, "RA_OF_ASC_NODE": 235.005, "ARG_OF_PERICENTER": 111.0611, "MEAN_ANOMALY": 250.6397, "EPHEMERIS_TYPE": 0, "CLASSIFICATION_TYPE": "U", "NORAD_CAT_ID": 31001, "ELEMENT_SET_NO": 999, "REV_AT_EPOCH": 98410, "BSTAR": 0.00038467, "MEAN_MOTION_DOT": 1.409e-05, "MEAN_MOTION_DDOT": 0}, "tle": {"line1": "1 31001U 99025BCT 25360.88142184  .00001409  00000+0  38467-3 0  9996", "line2": "2 31001  99.2713 235.0050 0147284 111.0611 250.6397 14.42897691984105"}}, "geometry": {"type": "Point", "coordinates": [-97.97656617511562, -69.4468823450326]}}, {"type": "Feature", "properties": {"norad_id": 31002, "name": "FENGYUN 1C DEB", "group": "fengyun-1c-debris", "lat": 77.01970787315763, "lon": -123.78297824335921, "alt_km": 953.3990491376944, "timestamp": "2025-12-27T23:26:37.642601+00:00", "meta": {"OBJECT_NAME": "FENGYUN 1C DEB", "OBJECT_ID": "1999-025BCU", "EPOCH": "2025-12-26T18:39:19.018080", "MEAN_MOTION": 13.99216447, "ECCENTRICITY": 0.00983968, "INCLINATION": 98.8853, "RA_OF_ASC_NODE": 12.316, "ARG_OF_PERICENTER": 308.862, "MEAN_ANOMALY": 231.2333, "EPHEMERIS_TYPE": 0, "CLASSIFICATION_TYPE": "U", "NORAD_CAT_ID": 31002, "ELEMENT_SET_NO": 999, "REV_AT_EPOCH": 95801, "BSTAR": 0.00041747306, "MEAN_MOTION_DOT": 5.88e-06, "MEAN_MOTION_DDOT": 0}, "tle": {"line1": "1 31002U 99025BCU 25360.77730345  .00000588  00000+0  41747-3 0  9999", "line2": "2 31002  98.8853  12.3160 0098396 308.8620 231.2333 13.99216447958010"}}, "geometry": {"type": "Point", "coordinates": [-123.78297824335921, 77.01970787315763]}}, {"type": "Feature", "properties": {"norad_id": 31003, "name": "FENGYUN 1C DEB", "group": "fengyun-1c-debris", "lat": 51.44603382856835, "lon": 67.61282584972957, "alt_km": 819.0119878975138, "timestamp": "2025-12-27T23:26:37.642611+00:00", "meta": {"OBJECT_NAME": "FENGYUN 1C DEB", "OBJECT_ID": "1999-025BCV", "EPOCH": "2025-12-26T03:22:35.090688", "MEAN_MOTION": 14.2477797, "ECCENTRICITY": 0.00421242, "INCLINATION": 98.8421, "RA_OF_ASC_NODE": 77.0273, "ARG_OF_PERICENTER": 176.7656, "MEAN_ANOMALY": 183.3802, "EPHEMERIS_TYPE": 0, "CLASSIFICATION_TYPE": "U", "NORAD_CAT_ID": 31003, "ELEMENT_SET_NO": 999, "REV_AT_EPOCH": 96700, "BSTAR": 0.0013638884, "MEAN_MOTION_DOT": 3.164e-05, "MEAN_MOTION_DDOT": 0}, "tle": {"line1": "1 31003U 99025BCV 25360.14068392  .00003164  00000+0  13639-2 0  9998", "line2": "2 31003  98.8421  77.0273 0042124 176.7656 183.3802 14.24777970967003"}}, "geometry": {"type": "Point", "coordinates": [67.61282584972957, 51.44603382856835]}}, {"type": "Feature", "properties": {"norad_id": 31005, "name": "FENGYUN 1C DEB", "group": "fengyun-1c-debris", "lat": -46.226978117915365, "lon": -54.64814026247963, "alt_km": 884.7472875550384, "timestamp": "2025-12-27T23:26:37.642621+00:00", "meta": {"OBJECT_NAME": "FENGYUN 1C DEB", "OBJECT_ID": "1999-025BCX", "EPOCH": "2025-12-25T08:06:17.154720", "MEAN_MOTION": 13.83315917, "ECCENTRICITY": 0.0181141, "INCLINATION": 98.6135, "RA_OF_ASC_NODE": 132.0365, "ARG_OF_PERICENTER": 290.9603, "MEAN_ANOMALY": 122.0502, "EPHEMERIS_TYPE": 0, "CLASSIFICATION_TYPE": "U", "NORAD_CAT_ID": 31005, "ELEMENT_SET_NO": 999, "REV_AT_EPOCH": 94455, "BSTAR": 0.0012807, "MEAN_MOTION_DOT": 1.556e-05, "MEAN_MOTION_DDOT": 0}, "tle": {"line1": "1 31005U 99025BCX 25359.33769855  .00001556  00000+0  12807-2 0  9990", "line2": "2 31005  98.6135 132.0365 0181141 290.9603 122.0502 13.83315917944558"}}, "geometry": {"type": "Point", "coordinates": [-54.64814026247963, -46.226978117915365]}}, {"type": "Feature", "properties": {"norad_id": 31007, "name": "FENGYUN 1C DEB", "group": "fengyun-1c-debris", "lat": 67.64820842558649, "lon": -166.38572082248325, "alt_km": 712.973139971049, "timestamp": "2025-12-27T23:26:37.642631+00:00", "meta": {"OBJECT_NAME": "FENGYUN 1C DEB", "OBJECT_ID": "1999-025BCZ", "EPOCH": "2025-12-27T04:50:03.352416", "MEAN_MOTION": 14.58953969, "ECCENTRICITY": 0.0066236, "INCLINATION": 98.089, "RA_OF_ASC_NODE": 352.6238, "ARG_OF_PERICENTER": 353.4568, "MEAN_ANOMALY": 6.576, "EPHEMERIS_TYPE": 0, "CLASSIFICATION_TYPE": "U", "NORAD_CAT_ID": 31007, "ELEMENT_SET_NO": 999, "REV_AT_EPOCH": 98305, "BSTAR": 0.0027689, "MEAN_MOTION_DOT": 0.00013363, "MEAN_MOTION_DDOT": 0}, "tle": {"line1": "1 31007U 99025BCZ 25361.20142769  .00013363  00000+0  27689-2 0  9993", "line2": "2 31007  98.0890 352.6238 0066236 353.4568   6.5760 14.58953969983051"}}, "geometry": {"type": "Point", "coordinates": [-166.38572082248325, 67.64820842558649]}}, {"type": "Feature", "properties": {"norad_id": 31009, "name": "FENGYUN 1C DEB", "group": "fengyun-1c-debris", "lat": 58.217024296343226, "lon": -17.252992680012483, "alt_km": 914.1014451591445, "timestamp": "2025-12-27T23:26:37.642641+00:00", "meta": {"OBJECT_NAME": "FENGYUN 1C DEB", "OBJECT_ID": "1999-025BDB", "EPOCH": "2025-12-27T11:52:48.082944", "MEAN_MOTION": 14.00368569, "ECCENTRICITY": 0.0053351, "INCLINATION": 98.8964, "RA_OF_ASC_NODE": 356.9206, "ARG_OF_PERICENTER": 195.578, "MEAN_ANOMALY": 316.5796, "EPHEMERIS_TYPE": 0, "CLASSIFICATION_TYPE": "U", "NORAD_CAT_ID": 31009, "ELEMENT_SET_NO": 999, "REV_AT_EPOCH": 96067, "BSTAR": 0.00010432, "MEAN_MOTION_DOT": 1.13e-06, "MEAN_MOTION_DDOT": 0}, "tle": {"line1": "1 31009U 99025BDB 25361.49500096  .00000113  00000+0  10432-3 0  9995", "line2": "2 31009  98.8964 356.9206 0053351 195.5780 316.5796 14.00368569960679"}}, "geometry": {"type": "Point", "coordinates": [-17.252992680012483, 58.217024296343226]}}]}